<?xml version="1.0" encoding="UTF-8"?>
<ndm xmlns:xsi="http://www.w3.org/2001/XMLSchema-instance" xsi:noNamespaceSchemaLocation="https://sanaregistry.org/r/ndmxml_unqualified/ndmxml-2.0.0-master-2.0.xsd">
<omm id="CCSDS_OMM_VERS" version="2.0">
<header><CREATION_DATE/><ORIGINATOR/></header><body><segment><metadata><OBJECT_NAME>ONEWEB-0379</OBJECT_NAME><OBJECT_ID>2021-090AC</OBJECT_ID><CENTER_NAME>EARTH</CENTER_NAME><REF_FRAME>TEME</REF_FRAME><TIME_SYSTEM>UTC</TIME_SYSTEM><MEAN_ELEMENT_THEORY>SGP4</MEAN_ELEMENT_THEORY></metadata><data><meanElements><EPOCH>2024-10-28T13:53:37.369536</EPOCH><MEAN_MOTION>13.14502785</MEAN_MOTION><ECCENTRICITY>.0001722</ECCENTRICITY><INCLINATION>87.9020</INCLINATION><RA_OF_ASC_NODE>48.3397</RA_OF_ASC_NODE><ARG_OF_PERICENTER>101.1684</ARG_OF_PERICENTER><MEAN_ANOMALY>258.9639</MEAN_ANOMALY></meanElements><tleParameters><EPHEMERIS_TYPE>0</EPHEMERIS_TYPE><CLASSIFICATION_TYPE>U</CLASSIFICATION_TYPE><NORAD_CAT_ID>49305</NORAD_CAT_ID><ELEMENT_SET_NO>999</ELEMENT_SET_NO><REV_AT_EPOCH>15048</REV_AT_EPOCH><BSTAR>.20658E-3</BSTAR><MEAN_MOTION_DOT>.89E-6</MEAN_MOTION_DOT><MEAN_MOTION_DDOT>0</MEAN_MOTION_DDOT></tleParameters></data></segment></body></omm>
<omm id="CCSDS_OMM_VERS" version="2.0">
<header><CREATION_DATE/><ORIGINATOR/></header><body><segment><metadata><OBJECT_NAME>ONEWEB-0380</OBJECT_NAME><OBJECT_ID>2021-090AD</OBJECT_ID><CENTER_NAME>EARTH</CENTER_NAME><REF_FRAME>TEME</REF_FRAME><TIME_SYSTEM>UTC</TIME_SYSTEM><MEAN_ELEMENT_THEORY>SGP4</MEAN_ELEMENT_THEORY></metadata><data><meanElements><EPOCH>2024-10-28T08:31:43.079808</EPOCH><MEAN_MOTION>13.19681065</MEAN_MOTION><ECCENTRICITY>.00021</ECCENTRICITY><INCLINATION>87.9167</INCLINATION><RA_OF_ASC_NODE>63.6592</RA_OF_ASC_NODE><ARG_OF_PERICENTER>131.0745</ARG_OF_PERICENTER><MEAN_ANOMALY>229.0569</MEAN_ANOMALY></meanElements><tleParameters><EPHEMERIS_TYPE>0</EPHEMERIS_TYPE><CLASSIFICATION_TYPE>U</CLASSIFICATION_TYPE><NORAD_CAT_ID>49306</NORAD_CAT_ID><ELEMENT_SET_NO>999</ELEMENT_SET_NO><REV_AT_EPOCH>14770</REV_AT_EPOCH><BSTAR>.21954E-1</BSTAR><MEAN_MOTION_DOT>.8805E-4</MEAN_MOTION_DOT><MEAN_MOTION_DDOT>0</MEAN_MOTION_DDOT></tleParameters></data></segment></body></omm>
<omm id="CCSDS_OMM_VERS" version="2.0">
<header><CREATION_DATE/><ORIGINATOR/></header><body><segment><metadata><OBJECT_NAME>ONEWEB-0381</OBJECT_NAME><OBJECT_ID>2021-090AE</OBJECT_ID><CENTER_NAME>EARTH</CENTER_NAME><REF_FRAME>TEME</REF_FRAME><TIME_SYSTEM>UTC</TIME_SYSTEM><MEAN_ELEMENT_THEORY>SGP4</MEAN_ELEMENT_THEORY></metadata><data><meanElements><EPOCH>2024-10-28T11:56:53.545344</EPOCH><MEAN_MOTION>13.20782030</MEAN_MOTION><ECCENTRICITY>.0001663</ECCENTRICITY><INCLINATION>87.9293</INCLINATION><RA_OF_ASC_NODE>33.1344</RA_OF_ASC_NODE><ARG_OF_PERICENTER>100.2204</ARG_OF_PERICENTER><MEAN_ANOMALY>259.9117</MEAN_ANOMALY></meanElements><tleParameters><EPHEMERIS_TYPE>0</EPHEMERIS_TYPE><CLASSIFICATION_TYPE>U</CLASSIFICATION_TYPE><NORAD_CAT_ID>49307</NORAD_CAT_ID><ELEMENT_SET_NO>999</ELEMENT_SET_NO><REV_AT_EPOCH>15106</REV_AT_EPOCH><BSTAR>-.51117E-2</BSTAR><MEAN_MOTION_DOT>-.2065E-4</MEAN_MOTION_DOT><MEAN_MOTION_DDOT>0</MEAN_MOTION_DDOT></tleParameters></data></segment></body></omm>
<omm id="CCSDS_OMM_VERS" version="2.0">
<header><CREATION_DATE/><ORIGINATOR/></header><body><segment><metadata><OBJECT_NAME>ONEWEB-0382</OBJECT_NAME><OBJECT_ID>2021-090AF</OBJECT_ID><CENTER_NAME>EARTH</CENTER_NAME><REF_FRAME>TEME</REF_FRAME><TIME_SYSTEM>UTC</TIME_SYSTEM><MEAN_ELEMENT_THEORY>SGP4</MEAN_ELEMENT_THEORY></metadata><data><meanElements><EPOCH>2024-10-28T11:38:41.033760</EPOCH><MEAN_MOTION>13.20770655</MEAN_MOTION><ECCENTRICITY>.0001777</ECCENTRICITY><INCLINATION>87.9294</INCLINATION><RA_OF_ASC_NODE>33.1332</RA_OF_ASC_NODE><ARG_OF_PERICENTER>115.9897</ARG_OF_PERICENTER><MEAN_ANOMALY>244.1419</MEAN_ANOMALY></meanElements><tleParameters><EPHEMERIS_TYPE>0</EPHEMERIS_TYPE><CLASSIFICATION_TYPE>U</CLASSIFICATION_TYPE><NORAD_CAT_ID>49308</NORAD_CAT_ID><ELEMENT_SET_NO>999</ELEMENT_SET_NO><REV_AT_EPOCH>15105</REV_AT_EPOCH><BSTAR>.1475E-3</BSTAR><MEAN_MOTION_DOT>.73E-6</MEAN_MOTION_DOT><MEAN_MOTION_DDOT>0</MEAN_MOTION_DDOT></tleParameters></data></segment></body></omm>
<omm id="CCSDS_OMM_VERS" version="2.0">
<header><CREATION_DATE/><ORIGINATOR/></header><body><segment><metadata><OBJECT_NAME>ONEWEB-0383</OBJECT_NAME><OBJECT_ID>2021-090AG</OBJECT_ID><CENTER_NAME>EARTH</CENTER_NAME><REF_FRAME>TEME</REF_FRAME><TIME_SYSTEM>UTC</TIME_SYSTEM><MEAN_ELEMENT_THEORY>SGP4</MEAN_ELEMENT_THEORY></metadata><data><meanElements><EPOCH>2024-10-28T13:44:27.109536</EPOCH><MEAN_MOTION>13.14500004</MEAN_MOTION><ECCENTRICITY>.0001783</ECCENTRICITY><INCLINATION>87.9020</INCLINATION><RA_OF_ASC_NODE>48.3262</RA_OF_ASC_NODE><ARG_OF_PERICENTER>107.9492</ARG_OF_PERICENTER><MEAN_ANOMALY>252.1832</MEAN_ANOMALY></meanElements><tleParameters><EPHEMERIS_TYPE>0</EPHEMERIS_TYPE><CLASSIFICATION_TYPE>U</CLASSIFICATION_TYPE><NORAD_CAT_ID>49309</NORAD_CAT_ID><ELEMENT_SET_NO>999</ELEMENT_SET_NO><REV_AT_EPOCH>14921</REV_AT_EPOCH><BSTAR>-.40748E-3</BSTAR><MEAN_MOTION_DOT>-.138E-5</MEAN_MOTION_DOT><MEAN_MOTION_DDOT>0</MEAN_MOTION_DDOT></tleParameters></data></segment></body></omm>
<omm id="CCSDS_OMM_VERS" version="2.0">
<header><CREATION_DATE/><ORIGINATOR/></header><body><segment><metadata><OBJECT_NAME>ONEWEB-0384</OBJECT_NAME><OBJECT_ID>2021-090AH</OBJECT_ID><CENTER_NAME>EARTH</CENTER_NAME><REF_FRAME>TEME</REF_FRAME><TIME_SYSTEM>UTC</TIME_SYSTEM><MEAN_ELEMENT_THEORY>SGP4</MEAN_ELEMENT_THEORY></metadata><data><meanElements><EPOCH>2024-10-28T13:23:13.939008</EPOCH><MEAN_MOTION>13.20774009</MEAN_MOTION><ECCENTRICITY>.0001858</ECCENTRICITY><INCLINATION>87.9299</INCLINATION><RA_OF_ASC_NODE>33.1326</RA_OF_ASC_NODE><ARG_OF_PERICENTER>118.4079</ARG_OF_PERICENTER><MEAN_ANOMALY>241.7242</MEAN_ANOMALY></meanElements><tleParameters><EPHEMERIS_TYPE>0</EPHEMERIS_TYPE><CLASSIFICATION_TYPE>U</CLASSIFICATION_TYPE><NORAD_CAT_ID>49310</NORAD_CAT_ID><ELEMENT_SET_NO>999</ELEMENT_SET_NO><REV_AT_EPOCH>15107</REV_AT_EPOCH><BSTAR>-.12289E-4</BSTAR><MEAN_MOTION_DOT>.8E-7</MEAN_MOTION_DOT><MEAN_MOTION_DDOT>0</MEAN_MOTION_DDOT></tleParameters></data></segment></body></omm>
<omm id="CCSDS_OMM_VERS" version="2.0">
<header><CREATION_DATE/><ORIGINATOR/></header><body><segment><metadata><OBJECT_NAME>ONEWEB-0385</OBJECT_NAME><OBJECT_ID>2021-090AJ</OBJECT_ID><CENTER_NAME>EARTH</CENTER_NAME><REF_FRAME>TEME</REF_FRAME><TIME_SYSTEM>UTC</TIME_SYSTEM><MEAN_ELEMENT_THEORY>SGP4</MEAN_ELEMENT_THEORY></metadata><data><meanElements><EPOCH>2024-10-28T13:16:26.250240</EPOCH><MEAN_MOTION>13.20773401</MEAN_MOTION><ECCENTRICITY>.0001733</ECCENTRICITY><INCLINATION>87.9294</INCLINATION><RA_OF_ASC_NODE>33.1340</RA_OF_ASC_NODE><ARG_OF_PERICENTER>113.3838</ARG_OF_PERICENTER><MEAN_ANOMALY>246.7478</MEAN_ANOMALY></meanElements><tleParameters><EPHEMERIS_TYPE>0</EPHEMERIS_TYPE><CLASSIFICATION_TYPE>U</CLASSIFICATION_TYPE><NORAD_CAT_ID>49311</NORAD_CAT_ID><ELEMENT_SET_NO>999</ELEMENT_SET_NO><REV_AT_EPOCH>15104</REV_AT_EPOCH><BSTAR>.1577E-3</BSTAR><MEAN_MOTION_DOT>.77E-6</MEAN_MOTION_DOT><MEAN_MOTION_DDOT>0</MEAN_MOTION_DDOT></tleParameters></data></segment></body></omm>
<omm id="CCSDS_OMM_VERS" version="2.0">
<header><CREATION_DATE/><ORIGINATOR/></header><body><segment><metadata><OBJECT_NAME>ONEWEB-0386</OBJECT_NAME><OBJECT_ID>2021-090AK</OBJECT_ID><CENTER_NAME>EARTH</CENTER_NAME><REF_FRAME>TEME</REF_FRAME><TIME_SYSTEM>UTC</TIME_SYSTEM><MEAN_ELEMENT_THEORY>SGP4</MEAN_ELEMENT_THEORY></metadata><data><meanElements><EPOCH>2024-10-28T11:52:21.032832</EPOCH><MEAN_MOTION>13.20773866</MEAN_MOTION><ECCENTRICITY>.00017</ECCENTRICITY><INCLINATION>87.9287</INCLINATION><RA_OF_ASC_NODE>33.1315</RA_OF_ASC_NODE><ARG_OF_PERICENTER>112.2829</ARG_OF_PERICENTER><MEAN_ANOMALY>247.8485</MEAN_ANOMALY></meanElements><tleParameters><EPHEMERIS_TYPE>0</EPHEMERIS_TYPE><CLASSIFICATION_TYPE>U</CLASSIFICATION_TYPE><NORAD_CAT_ID>49312</NORAD_CAT_ID><ELEMENT_SET_NO>999</ELEMENT_SET_NO><REV_AT_EPOCH>15105</REV_AT_EPOCH><BSTAR>.48641E-3</BSTAR><MEAN_MOTION_DOT>.211E-5</MEAN_MOTION_DOT><MEAN_MOTION_DDOT>0</MEAN_MOTION_DDOT></tleParameters></data></segment></body></omm>

</ndm>
