ONEWEB-0379             
1 49305U 21090AC  24302.57890474  .00000089  00000+0  20658-3 0  9998
2 49305  87.9020  48.3397 0001722 101.1684 258.9639 13.14502785150482
ONEWEB-0380             
1 49306U 21090AD  24302.35535972  .00008805  00000+0  21954-1 0  9996
2 49306  87.9167  63.6592 0002100 131.0745 229.0569 13.19681065147709
ONEWEB-0381             
1 49307U 21090AE  24302.49784196 -.00002065  00000+0 -51117-2 0  9995
2 49307  87.9293  33.1344 0001663 100.2204 259.9117 13.20782030151069
ONEWEB-0382             
1 49308U 21090AF  24302.48519715  .00000073  00000+0  14750-3 0  9996
2 49308  87.9294  33.1332 0001777 115.9897 244.1419 13.20770655151055
ONEWEB-0383             
1 49309U 21090AG  24302.57253599 -.00000138  00000+0 -40748-3 0  9992
2 49309  87.9020  48.3262 0001783 107.9492 252.1832 13.14500004149217
ONEWEB-0384             
1 49310U 21090AH  24302.55780022  .00000008  00000+0 -12289-4 0  9993
2 49310  87.9299  33.1326 0001858 118.4079 241.7242 13.20774009151072
ONEWEB-0385             
1 49311U 21090AJ  24302.55308160  .00000077  00000+0  15770-3 0  9995
2 49311  87.9294  33.1340 0001733 113.3838 246.7478 13.20773401151041
ONEWEB-0386             
1 49312U 21090AK  24302.49468788  .00000211  00000+0  48641-3 0  9995
2 49312  87.9287  33.1315 0001700 112.2829 247.8485 13.20773866151054
